{
    "links": {
        "self": "http://www.neowsapp.com/rest/v1/neo/3667092?api_key=iIulBulltgU6a56xZRHN4H3l9WmuAYTsLGpBGhQ2"
    },
    "id": "3667092",
    "neo_reference_id": "3667092",
    "name": "(2014 GS34)",
    "designation": "2014 GS34",
    "nasa_jpl_url": "http://ssd.jpl.nasa.gov/sbdb.cgi?sstr=3667092",
    "absolute_magnitude_h": 24.3,
    "estimated_diameter": {
        "kilometers": {
            "estimated_diameter_min": 0.0366906138,
            "estimated_diameter_max": 0.0820427065
        },
        "meters": {
            "estimated_diameter_min": 36.6906137531,
            "estimated_diameter_max": 82.0427064882
        },
        "miles": {
            "estimated_diameter_min": 0.0227984834,
            "estimated_diameter_max": 0.0509789586
        },
        "feet": {
            "estimated_diameter_min": 120.3760332259,
            "estimated_diameter_max": 269.1689931548
        }
    },
    "is_potentially_hazardous_asteroid": false,
    "close_approach_data": [
        {
            "close_approach_date": "2014-04-12",
            "close_approach_date_full": "2014-Apr-12 07:49",
            "epoch_date_close_approach": 1397288940000,
            "relative_velocity": {
                "kilometers_per_second": "9.4880779183",
                "kilometers_per_hour": "34157.0805059629",
                "miles_per_hour": "21223.8814954968"
            },
            "miss_distance": {
                "astronomical": "0.0701297991",
                "lunar": "27.2804918499",
                "kilometers": "10491268.568887917",
                "miles": "6518971.9999585746"
            },
            "orbiting_body": "Earth"
        }
    ],
    "orbital_data": {
        "orbit_id": "8",
        "orbit_determination_date": "2017-04-06 08:41:43",
        "first_observation_date": "2014-04-05",
        "last_observation_date": "2014-04-14",
        "data_arc_in_days": 9,
        "observations_used": 25,
        "orbit_uncertainty": "8",
        "minimum_orbit_intersection": ".0564848",
        "jupiter_tisserand_invariant": "3.702",
        "epoch_osculation": "2456753.5",
        "eccentricity": ".4882602527700977",
        "semi_major_axis": "1.97467270500688",
        "inclination": "6.98222819475371",
        "ascending_node_longitude": "186.9836857921038",
        "orbital_period": "1013.54051000227",
        "perihelion_distance": "1.010518510922008",
        "perihelion_argument": "44.5176573291644",
        "aphelion_distance": "2.938826899091751",
        "perihelion_time": "2456783.331315008881",
        "mean_anomaly": "349.4041991442719",
        "mean_motion": ".3551905389545738",
        "equinox": "J2000",
        "orbit_class": {
            "orbit_class_type": "APO",
            "orbit_class_description": "Near-Earth asteroid orbits which cross the Earth’s orbit similar to that of 1862 Apollo",
            "orbit_class_range": "a (semi-major axis) > 1.0 AU; q (perihelion) < 1.017 AU"
        }
    },
    "is_sentry_object": false
}